NORAD_CAT_ID,OBJECT_NAME,OBJECT_TYPE,EPOCH,MEAN_MOTION,ECCENTRICITY,INCLINATION,RA_OF_ASC_NODE,ARG_OF_PERICENTER,MEAN_ANOMALY,BSTAR,MEAN_MOTION_DOT,MEAN_MOTION_DDOT,TLE_LINE0,TLE_LINE1,TLE_LINE2,SEMIMAJOR_AXIS,PERIOD,APOGEE,PERIGEE,DECAYED
52289.0,STARLINK-3751,PAYLOAD,2024-08-19 16:44:53,15.08827356,0.0001277,53.2158,124.4465,88.4354,271.6784,-0.00013459,-2.428e-05,0.0,0 STARLINK-3751,1 52289U 22041AE  24232.69784346 -.00002428  00000-0 -13459-3 0  9998,2 52289  53.2158 124.4465 0001277  88.4354 271.6784 15.08827356130124,6917.919,95.438,540.667,538.901,0.0
52289.0,STARLINK-3751,PAYLOAD,2024-08-20 02:17:12,15.08838138,0.000131,53.2155,122.6613,100.1987,259.9153,5.9566e-05,6.6e-06,0.0,0 STARLINK-3751,1 52289U 22041AE  24233.09527863  .00000660  00000-0  59566-4 0  9996,2 52289  53.2155 122.6613 0001310 100.1987 259.9153 15.08838138130183,6917.886,95.438,540.657,538.845,0.0
52289.0,STARLINK-3751,PAYLOAD,2024-08-20 22:57:12,15.08844744,0.0001351,53.2159,118.7969,106.1615,253.9525,0.00048767,7.483e-05,0.0,0 STARLINK-3751,1 52289U 22041AE  24233.95639924  .00007483  00000-0  48767-3 0  9993,2 52289  53.2159 118.7969 0001351 106.1615 253.9525 15.08844744129091,6917.866,95.437,540.665,538.796,0.0
52289.0,STARLINK-3751,PAYLOAD,2024-08-21 19:37:13,15.08844263,0.0001556,53.216,114.9315,90.2427,269.8743,0.00026316,3.903e-05,0.0,0 STARLINK-3751,1 52289U 22041AE  24234.81752003  .00003903  00000-0  26316-3 0  9992,2 52289  53.2160 114.9315 0001556  90.2427 269.8743 15.08844263129226,6917.867,95.437,540.809,538.656,0.0
52289.0,STARLINK-3751,PAYLOAD,2024-08-21 22:48:00,15.08841549,0.0001378,53.2158,114.3355,83.0905,277.0244,0.000127,1.734e-05,0.0,0 STARLINK-3751,1 52289U 22041AE  24234.95000030  .00001734  00000-0  12700-3 0  9995,2 52289  53.2158 114.3355 0001378  83.0905 277.0244 15.08841549130463,6917.876,95.437,540.694,538.787,0.0
